NORAD_CAT_ID,OBJECT_NAME,OBJECT_TYPE,EPOCH,MEAN_MOTION,ECCENTRICITY,INCLINATION,RA_OF_ASC_NODE,ARG_OF_PERICENTER,MEAN_ANOMALY,BSTAR,MEAN_MOTION_DOT,MEAN_MOTION_DDOT,TLE_LINE0,TLE_LINE1,TLE_LINE2,SEMIMAJOR_AXIS,PERIOD,APOGEE,PERIGEE,DECAYED
52334.0,STARLINK-3880,PAYLOAD,2023-03-15 06:23:04,15.08868032,0.0001555,53.2162,64.221,90.9551,269.1619,0.0016747,0.00026486,0.0,0 STARLINK-3880,1 52334U 22045D   23074.26602435  .00026486  00000-0  16747-2 0  9997,2 52334  53.2162  64.2210 0001555  90.9551 269.1619 15.08868032 51010,6917.795,95.436,540.735,538.584,0.0
52334.0,STARLINK-3880,PAYLOAD,2023-03-15 22:16:55,15.08860544,0.0001474,53.2161,61.2479,106.1262,253.9893,0.00047311,7.254e-05,0.0,0 STARLINK-3880,1 52334U 22045D   23074.92841999  .00007254  00000-0  47311-3 0  9994,2 52334  53.2161  61.2479 0001474 106.1262 253.9893 15.08860544 51118,6917.818,95.436,540.702,538.663,0.0
52334.0,STARLINK-3880,PAYLOAD,2023-03-16 06:13:51,15.08852447,0.0001027,53.2153,59.7591,106.712,253.3985,0.00027648,4.117e-05,0.0,0 STARLINK-3880,1 52334U 22045D   23075.25961921  .00004117  00000-0  27648-3 0  9995,2 52334  53.2153  59.7591 0001027 106.7120 253.3985 15.08852447 51163,6917.842,95.437,540.418,538.997,0.0
52334.0,STARLINK-3880,PAYLOAD,2023-03-16 09:24:37,15.08858586,9.63e-05,53.2153,59.1643,101.1409,258.9691,0.00045656,6.989e-05,0.0,0 STARLINK-3880,1 52334U 22045D   23075.39209777  .00006989  00000-0  45656-3 0  9992,2 52334  53.2153  59.1643 0000963 101.1409 258.9691 15.08858586 51189,6917.824,95.436,540.355,539.022,0.0
52334.0,STARLINK-3880,PAYLOAD,2023-03-16 15:46:10,15.08833395,0.0001033,53.2156,57.9761,93.2161,266.8949,8.4664e-05,1.06e-05,0.0,0 STARLINK-3880,1 52334U 22045D   23075.65706114  .00001060  00000-0  84664-4 0  9996,2 52334  53.2156  57.9761 0001033  93.2161 266.8949 15.08833395 51224,6917.901,95.438,540.48,539.051,0.0
52334.0,STARLINK-3880,PAYLOAD,2023-03-17 06:04:39,15.08824716,0.0001193,53.2158,55.3,77.3024,282.8102,-4.1748e-06,-3.54e-06,0.0,0 STARLINK-3880,1 52334U 22045D   23076.25323112 -.00000354  00000-0 -41748-5 0  9990,2 52334  53.2158  55.3000 0001193  77.3024 282.8102 15.08824716 51318,6917.927,95.439,540.617,538.967,0.0
52334.0,STARLINK-3880,PAYLOAD,2023-03-17 10:50:48,15.08834704,0.0001191,53.2157,54.4076,80.4275,279.6851,0.00041036,6.248e-05,0.0,0 STARLINK-3880,1 52334U 22045D   23076.45195065  .00006248  00000-0  41036-3 0  9990,2 52334  53.2157  54.4076 0001191  80.4275 279.6851 15.08834704 51347,6917.897,95.438,540.585,538.938,0.0
52334.0,STARLINK-3880,PAYLOAD,2023-03-17 15:36:58,15.08832226,9.06e-05,53.2151,53.5136,94.5261,265.5835,0.00035838,5.419e-05,0.0,0 STARLINK-3880,1 52334U 22045D   23076.65067162  .00005419  00000-0  35838-3 0  9990,2 52334  53.2151  53.5136 0000906  94.5261 265.5835 15.08832226 51378,6917.904,95.438,540.396,539.142,0.0
52334.0,STARLINK-3880,PAYLOAD,2023-03-18 04:20:03,15.0884225,7.13e-05,53.2147,51.1349,94.7477,265.3597,0.00049583,7.613e-05,0.0,0 STARLINK-3880,1 52334U 22045D   23077.18059076  .00007613  00000-0  49583-3 0  9994,2 52334  53.2147  51.1349 0000713  94.7477 265.3597 15.08842250 51450,6917.874,95.437,540.232,539.245,0.0
52334.0,STARLINK-3880,PAYLOAD,2023-03-18 21:49:17,15.08840195,0.000131,53.2148,47.8651,80.6824,279.4316,0.00020099,2.912e-05,0.0,0 STARLINK-3880,1 52334U 22045D   23077.90923311  .00002912  00000-0  20099-3 0  9994,2 52334  53.2148  47.8651 0001310  80.6824 279.4316 15.08840195 51566,6917.88,95.438,540.651,538.839,0.0
52334.0,STARLINK-3880,PAYLOAD,2023-03-19 04:10:50,15.08843159,9.99e-05,53.2151,46.6754,92.655,267.4556,0.00020404,2.961e-05,0.0,0 STARLINK-3880,1 52334U 22045D   23078.17419138  .00002961  00000-0  20404-3 0  9995,2 52334  53.2151  46.6754 0000999  92.6550 267.4556 15.08843159 51603,6917.871,95.437,540.427,539.045,0.0
52334.0,STARLINK-3880,PAYLOAD,2023-03-19 07:21:36,15.08848923,0.0001079,53.2159,46.0797,91.9743,268.1372,0.00025312,3.744e-05,0.0,0 STARLINK-3880,1 52334U 22045D   23078.30666846  .00003744  00000-0  25312-3 0  9993,2 52334  53.2159  46.0797 0001079  91.9743 268.1372 15.08848923 51628,6917.853,95.437,540.465,538.972,0.0
52334.0,STARLINK-3880,PAYLOAD,2023-03-19 15:18:32,15.08841953,0.0001232,53.2165,44.5938,91.5222,268.5911,0.00016125,2.279e-05,0.0,0 STARLINK-3880,1 52334U 22045D   23078.63787214  .00002279  00000-0  16125-3 0  9996,2 52334  53.2165  44.5938 0001232  91.5222 268.5911 15.08841953 51678,6917.874,95.437,540.592,538.887,0.0
52334.0,STARLINK-3880,PAYLOAD,2023-03-20 07:12:23,15.08845906,0.0001243,53.2173,41.618,108.9702,251.1425,0.00015649,2.204e-05,0.0,0 STARLINK-3880,1 52334U 22045D   23079.30027048  .00002204  00000-0  15649-3 0  9991,2 52334  53.2173  41.6180 0001243 108.9702 251.1425 15.08845906 51773,6917.862,95.437,540.587,538.867,0.0
52334.0,STARLINK-3880,PAYLOAD,2023-03-21 07:03:10,15.08853047,0.0001226,53.2168,37.1576,105.8544,254.2583,0.00031511,4.732e-05,0.0,0 STARLINK-3880,1 52334U 22045D   23080.29386809  .00004732  00000-0  31511-3 0  9998,2 52334  53.2168  37.1576 0001226 105.8544 254.2583 15.08853047 51928,6917.841,95.437,540.554,538.857,0.0
52334.0,STARLINK-3880,PAYLOAD,2023-03-22 05:18:34,15.08839451,0.000114,53.2171,32.9977,95.7907,264.3215,0.00017954,2.571e-05,0.0,0 STARLINK-3880,1 52334U 22045D   23081.22123714  .00002571  00000-0  17954-3 0  9990,2 52334  53.2171  32.9977 0001140  95.7907 264.3215 15.08839451 52068,6917.882,95.438,540.536,538.958,0.0
52334.0,STARLINK-3880,PAYLOAD,2023-03-22 06:53:58,15.08839802,0.0001136,53.2167,32.6994,94.5212,265.591,0.00040352,6.14e-05,0.0,0 STARLINK-3880,1 52334U 22045D   23081.28747803  .00006140  00000-0  40352-3 0  9991,2 52334  53.2167  32.6994 0001136  94.5212 265.5910 15.08839802 52076,6917.881,95.438,540.532,538.96,0.0
52334.0,STARLINK-3880,PAYLOAD,2023-03-23 06:44:44,15.08863906,0.000105,53.2164,28.2388,90.0289,270.0823,0.0012879,0.00020282,0.0,0 STARLINK-3880,1 52334U 22045D   23082.28107377  .00020282  00000-0  12879-2 0  9993,2 52334  53.2164  28.2388 0001050  90.0289 270.0823 15.08863906 52224,6917.807,95.436,540.399,538.946,0.0
52334.0,STARLINK-3880,PAYLOAD,2023-03-24 05:00:08,15.08906297,0.0001151,53.2164,24.0763,125.3062,234.8038,0.002901,0.00046269,0.0,0 STARLINK-3880,1 52334U 22045D   23083.20842859  .00046269  00000-0  29010-2 0  9995,2 52334  53.2164  24.0763 0001151 125.3062 234.8038 15.08906297 52360,6917.678,95.433,540.339,538.747,0.0
52334.0,STARLINK-3880,PAYLOAD,2023-03-25 04:50:54,15.0885578,0.0001083,53.2164,19.6155,91.8029,268.3087,0.0008762,0.0001369,0.0,0 STARLINK-3880,1 52334U 22045D   23084.20202500  .00013690  00000-0  87620-3 0  9993,2 52334  53.2164  19.6155 0001083  91.8029 268.3087 15.08855780 52512,6917.832,95.437,540.446,538.948,0.0
52334.0,STARLINK-3880,PAYLOAD,2023-03-26 04:41:43,15.08827279,0.0001286,53.2173,15.1542,86.0367,274.0772,0.00098696,0.00015449,0.0,0 STARLINK-3880,1 52334U 22045D   23085.19563998  .00015449  00000-0  98696-3 0  9992,2 52334  53.2173  15.1542 0001286  86.0367 274.0772 15.08827279 52662,6917.919,95.438,540.674,538.895,0.0
52334.0,STARLINK-3880,PAYLOAD,2023-03-27 04:32:30,15.08837392,0.0001368,53.2176,10.6932,82.575,277.5397,0.00042532,6.487e-05,0.0,0 STARLINK-3880,1 52334U 22045D   23086.18924567  .00006487  00000-0  42532-3 0  9995,2 52334  53.2176  10.6932 0001368  82.5750 277.5397 15.08837392 52811,6917.888,95.438,540.7,538.807,0.0
52334.0,STARLINK-3880,PAYLOAD,2023-03-27 22:01:44,15.08851448,0.0001206,53.2175,7.4225,84.3144,275.7985,0.00054134,8.341e-05,0.0,0 STARLINK-3880,1 52334U 22045D   23086.91788172  .00008341  00000-0  54134-3 0  9998,2 52334  53.2175   7.4225 0001206  84.3144 275.7985 15.08851448 52920,6917.845,95.437,540.545,538.876,0.0
52334.0,STARLINK-3880,PAYLOAD,2023-03-28 04:23:17,15.08864606,0.0001242,53.2174,6.2335,94.034,266.0794,0.00088103,0.00013771,0.0,0 STARLINK-3880,1 52334U 22045D   23087.18283573  .00013771  00000-0  88103-3 0  9999,2 52334  53.2174   6.2335 0001242  94.0340 266.0794 15.08864606 52969,6917.805,95.436,540.529,538.811,0.0
52334.0,STARLINK-3880,PAYLOAD,2023-03-28 21:52:32,15.08840029,0.0001373,53.2177,2.9627,105.2968,254.8176,0.00010326,1.356e-05,0.0,0 STARLINK-3880,1 52334U 22045D   23087.91148203  .00001356  00000-0  10326-3 0  9998,2 52334  53.2177   2.9627 0001373 105.2968 254.8176 15.08840029 53070,6917.88,95.438,540.695,538.795,0.0
52334.0,STARLINK-3880,PAYLOAD,2023-03-29 01:03:18,15.08841921,0.0001169,53.2179,2.3713,66.1481,293.9633,0.00032901,4.952e-05,0.0,0 STARLINK-3880,1 52334U 22045D   23088.04396361  .00004952  00000-0  32901-3 0  9991,2 52334  53.2179   2.3713 0001169  66.1481 293.9633 15.08841921 53096,6917.875,95.437,540.548,538.931,0.0
52334.0,STARLINK-3880,PAYLOAD,2023-03-29 04:14:04,15.08846968,0.0001224,53.2169,1.7752,74.074,286.0387,0.00093509,0.00014628,0.0,0 STARLINK-3880,1 52334U 22045D   23088.17644381  .00014628  00000-0  93509-3 0  9995,2 52334  53.2169   1.7752 0001224  74.0740 286.0387 15.08846968 53117,6917.859,95.437,540.571,538.877,0.0
52334.0,STARLINK-3880,PAYLOAD,2023-03-30 10:26:24,15.08857373,0.0002749,53.2175,356.1264,100.9093,259.2208,0.00087386,0.00013654,0.0,0 STARLINK-3880,1 52334U 22045D   23089.43500018  .00013654  00000-0  87386-3 0  9997,2 52334  53.2175 356.1264 0002749 100.9093 259.2208 15.08857373 53309,6917.827,95.436,541.594,537.791,0.0
52334.0,STARLINK-3880,PAYLOAD,2023-03-31 03:55:38,15.08859866,0.000171,53.2181,352.8534,71.9334,288.1844,0.0013389,0.00021096,0.0,0 STARLINK-3880,1 52334U 22045D   23090.16363833  .00021096  00000-0  13389-2 0  9991,2 52334  53.2181 352.8534 0001710  71.9334 288.1844 15.08859866 53419,6917.82,95.436,540.868,538.502,0.0
52334.0,STARLINK-3880,PAYLOAD,2023-03-31 16:38:44,15.08840804,7.73e-05,53.2174,350.4762,74.8476,285.2602,0.0014605,0.00023033,0.0,0 STARLINK-3880,1 52334U 22045D   23090.69356527  .00023033  00000-0  14605-2 0  9996,2 52334  53.2174 350.4762 0000773  74.8476 285.2602 15.08840804 53495,6917.878,95.438,540.278,539.208,0.0
